ORBCOMM-X               
1 21576U 91050C   24276.16560715  .00001961  00000+0  60122-3 0  9998
2 21576  98.3793 341.6254 0002659 234.6296 125.4645 14.42776311745123
ORBCOMM FM01            
1 23545U 95017A   24275.93668669  .00020125  00000+0  24544-2 0  9994
2 23545  69.9692 355.2482 0006701 336.1398  23.9442 14.83332623574463
ORBCOMM FM02            
1 23546U 95017B   24275.45826284  .00022039  00000+0  27040-2 0  9991
2 23546  69.9708  16.0638 0008323 336.9515  23.1261 14.83049292573689
ORBCOMM FM08            
1 25112U 97084A   24276.08780959  .00006676  00000+0  19855-2 0  9990
2 25112  45.0134 165.1684 0007376  27.7179 332.4063 14.43714777404214
ORBCOMM FM10            
1 25113U 97084B   24275.82876249  .00006483  00000+0  19350-2 0  9996
2 25113  45.0147 168.3986 0005156 357.8059   2.2768 14.43586238579156
ORBCOMM FM11            
1 25114U 97084C   24275.79247473  .00005921  00000+0  17775-2 0  9999
2 25114  45.0131 168.7805 0005932 357.2941   2.7876 14.43400940404113
ORBCOMM FM12            
1 25115U 97084D   24276.10216247  .00005882  00000+0  17673-2 0  9994
2 25115  45.0137 167.0473 0004964 359.6412   0.4434 14.43374090404195
ORBCOMM FM09            
1 25116U 97084E   24275.42517699  .00006036  00000+0  18145-2 0  9991
2 25116  45.0147 171.0182 0006097 340.7734  19.2886 14.43310572404066
