<?xml version="1.0" encoding="UTF-8"?>
<ndm xmlns:xsi="http://www.w3.org/2001/XMLSchema-instance" xsi:noNamespaceSchemaLocation="https://sanaregistry.org/r/ndmxml_unqualified/ndmxml-2.0.0-master-2.0.xsd">
<omm id="CCSDS_OMM_VERS" version="2.0">
<header><CREATION_DATE/><ORIGINATOR/></header><body><segment><metadata><OBJECT_NAME>ORBCOMM-X</OBJECT_NAME><OBJECT_ID>1991-050C</OBJECT_ID><CENTER_NAME>EARTH</CENTER_NAME><REF_FRAME>TEME</REF_FRAME><TIME_SYSTEM>UTC</TIME_SYSTEM><MEAN_ELEMENT_THEORY>SGP4</MEAN_ELEMENT_THEORY></metadata><data><meanElements><EPOCH>2024-10-02T03:58:28.457760</EPOCH><MEAN_MOTION>14.42776311</MEAN_MOTION><ECCENTRICITY>.0002659</ECCENTRICITY><INCLINATION>98.3793</INCLINATION><RA_OF_ASC_NODE>341.6254</RA_OF_ASC_NODE><ARG_OF_PERICENTER>234.6296</ARG_OF_PERICENTER><MEAN_ANOMALY>125.4645</MEAN_ANOMALY></meanElements><tleParameters><EPHEMERIS_TYPE>0</EPHEMERIS_TYPE><CLASSIFICATION_TYPE>U</CLASSIFICATION_TYPE><NORAD_CAT_ID>21576</NORAD_CAT_ID><ELEMENT_SET_NO>999</ELEMENT_SET_NO><REV_AT_EPOCH>74512</REV_AT_EPOCH><BSTAR>.60122E-3</BSTAR><MEAN_MOTION_DOT>.1961E-4</MEAN_MOTION_DOT><MEAN_MOTION_DDOT>0</MEAN_MOTION_DDOT></tleParameters></data></segment></body></omm>
<omm id="CCSDS_OMM_VERS" version="2.0">
<header><CREATION_DATE/><ORIGINATOR/></header><body><segment><metadata><OBJECT_NAME>ORBCOMM FM01</OBJECT_NAME><OBJECT_ID>1995-017A</OBJECT_ID><CENTER_NAME>EARTH</CENTER_NAME><REF_FRAME>TEME</REF_FRAME><TIME_SYSTEM>UTC</TIME_SYSTEM><MEAN_ELEMENT_THEORY>SGP4</MEAN_ELEMENT_THEORY></metadata><data><meanElements><EPOCH>2024-10-01T22:28:49.730016</EPOCH><MEAN_MOTION>14.83332623</MEAN_MOTION><ECCENTRICITY>.0006701</ECCENTRICITY><INCLINATION>69.9692</INCLINATION><RA_OF_ASC_NODE>355.2482</RA_OF_ASC_NODE><ARG_OF_PERICENTER>336.1398</ARG_OF_PERICENTER><MEAN_ANOMALY>23.9442</MEAN_ANOMALY></meanElements><tleParameters><EPHEMERIS_TYPE>0</EPHEMERIS_TYPE><CLASSIFICATION_TYPE>U</CLASSIFICATION_TYPE><NORAD_CAT_ID>23545</NORAD_CAT_ID><ELEMENT_SET_NO>999</ELEMENT_SET_NO><REV_AT_EPOCH>57446</REV_AT_EPOCH><BSTAR>.24544E-2</BSTAR><MEAN_MOTION_DOT>.20125E-3</MEAN_MOTION_DOT><MEAN_MOTION_DDOT>0</MEAN_MOTION_DDOT></tleParameters></data></segment></body></omm>
<omm id="CCSDS_OMM_VERS" version="2.0">
<header><CREATION_DATE/><ORIGINATOR/></header><body><segment><metadata><OBJECT_NAME>ORBCOMM FM02</OBJECT_NAME><OBJECT_ID>1995-017B</OBJECT_ID><CENTER_NAME>EARTH</CENTER_NAME><REF_FRAME>TEME</REF_FRAME><TIME_SYSTEM>UTC</TIME_SYSTEM><MEAN_ELEMENT_THEORY>SGP4</MEAN_ELEMENT_THEORY></metadata><data><meanElements><EPOCH>2024-10-01T10:59:53.909376</EPOCH><MEAN_MOTION>14.83049292</MEAN_MOTION><ECCENTRICITY>.0008323</ECCENTRICITY><INCLINATION>69.9708</INCLINATION><RA_OF_ASC_NODE>16.0638</RA_OF_ASC_NODE><ARG_OF_PERICENTER>336.9515</ARG_OF_PERICENTER><MEAN_ANOMALY>23.1261</MEAN_ANOMALY></meanElements><tleParameters><EPHEMERIS_TYPE>0</EPHEMERIS_TYPE><CLASSIFICATION_TYPE>U</CLASSIFICATION_TYPE><NORAD_CAT_ID>23546</NORAD_CAT_ID><ELEMENT_SET_NO>999</ELEMENT_SET_NO><REV_AT_EPOCH>57368</REV_AT_EPOCH><BSTAR>.2704E-2</BSTAR><MEAN_MOTION_DOT>.22039E-3</MEAN_MOTION_DOT><MEAN_MOTION_DDOT>0</MEAN_MOTION_DDOT></tleParameters></data></segment></body></omm>
<omm id="CCSDS_OMM_VERS" version="2.0">
<header><CREATION_DATE/><ORIGINATOR/></header><body><segment><metadata><OBJECT_NAME>ORBCOMM FM08</OBJECT_NAME><OBJECT_ID>1997-084A</OBJECT_ID><CENTER_NAME>EARTH</CENTER_NAME><REF_FRAME>TEME</REF_FRAME><TIME_SYSTEM>UTC</TIME_SYSTEM><MEAN_ELEMENT_THEORY>SGP4</MEAN_ELEMENT_THEORY></metadata><data><meanElements><EPOCH>2024-10-02T02:06:26.748576</EPOCH><MEAN_MOTION>14.43714777</MEAN_MOTION><ECCENTRICITY>.0007376</ECCENTRICITY><INCLINATION>45.0134</INCLINATION><RA_OF_ASC_NODE>165.1684</RA_OF_ASC_NODE><ARG_OF_PERICENTER>27.7179</ARG_OF_PERICENTER><MEAN_ANOMALY>332.4063</MEAN_ANOMALY></meanElements><tleParameters><EPHEMERIS_TYPE>0</EPHEMERIS_TYPE><CLASSIFICATION_TYPE>U</CLASSIFICATION_TYPE><NORAD_CAT_ID>25112</NORAD_CAT_ID><ELEMENT_SET_NO>999</ELEMENT_SET_NO><REV_AT_EPOCH>40421</REV_AT_EPOCH><BSTAR>.19855E-2</BSTAR><MEAN_MOTION_DOT>.6676E-4</MEAN_MOTION_DOT><MEAN_MOTION_DDOT>0</MEAN_MOTION_DDOT></tleParameters></data></segment></body></omm>
<omm id="CCSDS_OMM_VERS" version="2.0">
<header><CREATION_DATE/><ORIGINATOR/></header><body><segment><metadata><OBJECT_NAME>ORBCOMM FM10</OBJECT_NAME><OBJECT_ID>1997-084B</OBJECT_ID><CENTER_NAME>EARTH</CENTER_NAME><REF_FRAME>TEME</REF_FRAME><TIME_SYSTEM>UTC</TIME_SYSTEM><MEAN_ELEMENT_THEORY>SGP4</MEAN_ELEMENT_THEORY></metadata><data><meanElements><EPOCH>2024-10-01T19:53:25.079136</EPOCH><MEAN_MOTION>14.43586238</MEAN_MOTION><ECCENTRICITY>.0005156</ECCENTRICITY><INCLINATION>45.0147</INCLINATION><RA_OF_ASC_NODE>168.3986</RA_OF_ASC_NODE><ARG_OF_PERICENTER>357.8059</ARG_OF_PERICENTER><MEAN_ANOMALY>2.2768</MEAN_ANOMALY></meanElements><tleParameters><EPHEMERIS_TYPE>0</EPHEMERIS_TYPE><CLASSIFICATION_TYPE>U</CLASSIFICATION_TYPE><NORAD_CAT_ID>25113</NORAD_CAT_ID><ELEMENT_SET_NO>999</ELEMENT_SET_NO><REV_AT_EPOCH>57915</REV_AT_EPOCH><BSTAR>.1935E-2</BSTAR><MEAN_MOTION_DOT>.6483E-4</MEAN_MOTION_DOT><MEAN_MOTION_DDOT>0</MEAN_MOTION_DDOT></tleParameters></data></segment></body></omm>
<omm id="CCSDS_OMM_VERS" version="2.0">
<header><CREATION_DATE/><ORIGINATOR/></header><body><segment><metadata><OBJECT_NAME>ORBCOMM FM11</OBJECT_NAME><OBJECT_ID>1997-084C</OBJECT_ID><CENTER_NAME>EARTH</CENTER_NAME><REF_FRAME>TEME</REF_FRAME><TIME_SYSTEM>UTC</TIME_SYSTEM><MEAN_ELEMENT_THEORY>SGP4</MEAN_ELEMENT_THEORY></metadata><data><meanElements><EPOCH>2024-10-01T19:01:09.816672</EPOCH><MEAN_MOTION>14.43400940</MEAN_MOTION><ECCENTRICITY>.0005932</ECCENTRICITY><INCLINATION>45.0131</INCLINATION><RA_OF_ASC_NODE>168.7805</RA_OF_ASC_NODE><ARG_OF_PERICENTER>357.2941</ARG_OF_PERICENTER><MEAN_ANOMALY>2.7876</MEAN_ANOMALY></meanElements><tleParameters><EPHEMERIS_TYPE>0</EPHEMERIS_TYPE><CLASSIFICATION_TYPE>U</CLASSIFICATION_TYPE><NORAD_CAT_ID>25114</NORAD_CAT_ID><ELEMENT_SET_NO>999</ELEMENT_SET_NO><REV_AT_EPOCH>40411</REV_AT_EPOCH><BSTAR>.17775E-2</BSTAR><MEAN_MOTION_DOT>.5921E-4</MEAN_MOTION_DOT><MEAN_MOTION_DDOT>0</MEAN_MOTION_DDOT></tleParameters></data></segment></body></omm>
<omm id="CCSDS_OMM_VERS" version="2.0">
<header><CREATION_DATE/><ORIGINATOR/></header><body><segment><metadata><OBJECT_NAME>ORBCOMM FM12</OBJECT_NAME><OBJECT_ID>1997-084D</OBJECT_ID><CENTER_NAME>EARTH</CENTER_NAME><REF_FRAME>TEME</REF_FRAME><TIME_SYSTEM>UTC</TIME_SYSTEM><MEAN_ELEMENT_THEORY>SGP4</MEAN_ELEMENT_THEORY></metadata><data><meanElements><EPOCH>2024-10-02T02:27:06.837408</EPOCH><MEAN_MOTION>14.43374090</MEAN_MOTION><ECCENTRICITY>.0004964</ECCENTRICITY><INCLINATION>45.0137</INCLINATION><RA_OF_ASC_NODE>167.0473</RA_OF_ASC_NODE><ARG_OF_PERICENTER>359.6412</ARG_OF_PERICENTER><MEAN_ANOMALY>0.4434</MEAN_ANOMALY></meanElements><tleParameters><EPHEMERIS_TYPE>0</EPHEMERIS_TYPE><CLASSIFICATION_TYPE>U</CLASSIFICATION_TYPE><NORAD_CAT_ID>25115</NORAD_CAT_ID><ELEMENT_SET_NO>999</ELEMENT_SET_NO><REV_AT_EPOCH>40419</REV_AT_EPOCH><BSTAR>.17673E-2</BSTAR><MEAN_MOTION_DOT>.5882E-4</MEAN_MOTION_DOT><MEAN_MOTION_DDOT>0</MEAN_MOTION_DDOT></tleParameters></data></segment></body></omm>
<omm id="CCSDS_OMM_VERS" version="2.0">
<header><CREATION_DATE/><ORIGINATOR/></header><body><segment><metadata><OBJECT_NAME>ORBCOMM FM09</OBJECT_NAME><OBJECT_ID>1997-084E</OBJECT_ID><CENTER_NAME>EARTH</CENTER_NAME><REF_FRAME>TEME</REF_FRAME><TIME_SYSTEM>UTC</TIME_SYSTEM><MEAN_ELEMENT_THEORY>SGP4</MEAN_ELEMENT_THEORY></metadata><data><meanElements><EPOCH>2024-10-01T10:12:15.291936</EPOCH><MEAN_MOTION>14.43310572</MEAN_MOTION><ECCENTRICITY>.0006097</ECCENTRICITY><INCLINATION>45.0147</INCLINATION><RA_OF_ASC_NODE>171.0182</RA_OF_ASC_NODE><ARG_OF_PERICENTER>340.7734</ARG_OF_PERICENTER><MEAN_ANOMALY>19.2886</MEAN_ANOMALY></meanElements><tleParameters><EPHEMERIS_TYPE>0</EPHEMERIS_TYPE><CLASSIFICATION_TYPE>U</CLASSIFICATION_TYPE><NORAD_CAT_ID>25116</NORAD_CAT_ID><ELEMENT_SET_NO>999</ELEMENT_SET_NO><REV_AT_EPOCH>40406</REV_AT_EPOCH><BSTAR>.18145E-2</BSTAR><MEAN_MOTION_DOT>.6036E-4</MEAN_MOTION_DOT><MEAN_MOTION_DDOT>0</MEAN_MOTION_DDOT></tleParameters></data></segment></body></omm>

</ndm>
